[
  {
    "norad_id": "63214",
    "name": "TEVEL2-5",
    "tle1": "1 63214U 25052E   25108.26438978  .00015537  00000+0  74445-3 0  9990\r",
    "tle2": "2 63214  97.4381   3.0356 0004610 139.5150 220.6428 15.19005963  5303",
    "transmitters": [],
    "image": "satellites/transit-o__1.jpg",
    "country": "US"
  },
  {
    "norad_id": "63215",
    "name": "TEVEL2-6",
    "tle1": "1 63215U 25052F   25108.26516114  .00015626  00000+0  74947-3 0  9996\r",
    "tle2": "2 63215  97.4377   3.0348 0004559 141.7522 218.4036 15.18968305  5307",
    "transmitters": [],
    "image": "satellites/transit-o__1.jpg",
    "country": "US"
  },
  {
    "norad_id": "63239",
    "name": "TEVEL2-7",
    "tle1": "1 63239U 25052AF  25107.70225309  .00018547  00000+0  92535-3 0  9991\r",
    "tle2": "2 63239  97.4421   2.4284 0008042 184.4167 175.6997 15.17537110  5210",
    "transmitters": [],
    "image": "satellites/transit-o__1.jpg",
    "country": "US"
  },
  {
    "norad_id": "63237",
    "name": "TEVEL2-8",
    "tle1": "1 63237U 25052AD  25107.70091625  .00019057  00000+0  94864-3 0  9995\r",
    "tle2": "2 63237  97.4421   2.4301 0007873 183.5992 176.5187 15.17612117  5217",
    "transmitters": [],
    "image": "satellites/transit-o__1.jpg",
    "country": "US"
  },
  {
    "norad_id": "63238",
    "name": "TEVEL2-9",
    "tle1": "1 63238U 25052AE  25107.70152965  .00018680  00000+0  93097-3 0  9999\r",
    "tle2": "2 63238  97.4425   2.4300 0008048 183.9213 176.1959 15.17574183  5219",
    "transmitters": [],
    "image": "satellites/transit-o__1.jpg",
    "country": "US"
  },
  {
    "norad_id": "57172",
    "name": "UmKA-1",
    "tle1": "1 57172U 23091G   25108.89210570  .00008994  00000+0  48901-3 0  9999\r",
    "tle2": "2 57172  97.5630 164.5543 0015808 148.8097 211.4076 15.14604046 99652",
    "transmitters": [
      {
        "description": "Mode U - GMSK 4k8 (G3RUH) TLM",
        "mode": "FSK",
        "status": "inactive",
        "uplink": null,
        "downlink": 435825000
      },
      {
        "description": "Mode U - GMSK 2k4 (G3RUH) TLM",
        "mode": "FSK",
        "status": "inactive",
        "uplink": null,
        "downlink": 437625000
      },
      {
        "description": "Mode U - GMSK 9k6 (USP) TLM",
        "mode": "GMSK USP",
        "status": "active",
        "uplink": null,
        "downlink": 437625000
      },
      {
        "description": "Mode U - GMSK 2k4 (USP) TLM",
        "mode": "GMSK USP",
        "status": "inactive",
        "uplink": null,
        "downlink": 437625000
      },
      {
        "description": "Mode S - BPSK 2Mbps TLM",
        "mode": "BPSK",
        "status": "active",
        "uplink": null,
        "downlink": 2402400000
      },
      {
        "description": "Mode U - SSTV",
        "mode": "SSTV",
        "status": "active",
        "uplink": null,
        "downlink": 437625000
      },
      {
        "description": "Mode U - GMSK 4k8 (USP) TLM",
        "mode": "GMSK USP",
        "status": "active",
        "uplink": null,
        "downlink": 437625000
      }
    ],
    "image": "satellites/umka.jpeg",
    "country": "RU"
  },
  {
    "norad_id": "14781",
    "name": "UO-11",
    "tle1": "1 14781U 84021B   25108.86712902  .00002718  00000+0  29326-3 0  9999\r",
    "tle2": "2 14781  97.7504  76.2807 0008868 137.9902 222.1997 14.89180594214947",
    "transmitters": [
      {
        "description": "1k2 AFSK TLM",
        "mode": "AFSK",
        "status": "active",
        "uplink": null,
        "downlink": 145825000
      },
      {
        "description": "1k2 AFSK Payload",
        "mode": "AFSK",
        "status": "inactive",
        "uplink": null,
        "downlink": 435025000
      },
      {
        "description": "4k8 PSK Payload",
        "mode": "PSK",
        "status": "inactive",
        "uplink": null,
        "downlink": 435025000
      },
      {
        "description": "FM Beacon",
        "mode": "FM",
        "status": "inactive",
        "uplink": null,
        "downlink": 2401500000
      }
    ],
    "image": "https://db-satnogs.freetls.fastly.net/media/satellites/UoSat-2.jpg",
    "country": "GB"
  },
  {
    "norad_id": "46276",
    "name": "UPMSat-2",
    "tle1": "1 46276U 20061E   25107.75077784  .00067663  00000+0  78875-3 0  9999\r",
    "tle2": "2 46276  97.2477 180.6268 0001681 138.2729 221.8657 15.61446810257205",
    "transmitters": [
      {
        "description": "PE0SAT - 1k2 BPSK AFSK Tones",
        "mode": "BPSK",
        "status": "inactive",
        "uplink": null,
        "downlink": 437405000
      },
      {
        "description": "Mode U - FSK1k2 - AX.25",
        "mode": "FSK",
        "status": "active",
        "uplink": null,
        "downlink": 437405000
      }
    ],
    "image": "satellites/upmsat-2__1.jpg",
    "country": "ES"
  },
  {
    "norad_id": "43880",
    "name": "UWE-4",
    "tle1": "1 43880U 18111E   25107.72190990  .00023963  00000+0  98842-3 0  9993\r",
    "tle2": "2 43880  97.5924  19.8583 0014182  44.3247 315.9123 15.23963517345575",
    "transmitters": [
      {
        "description": "FSK9k6 AX.25 TLM - 16K0F2D",
        "mode": "FSK",
        "status": "inactive",
        "uplink": null,
        "downlink": 437385000
      },
      {
        "description": "Mode U - FSK 9600 AX.25",
        "mode": "FSK",
        "status": "active",
        "uplink": null,
        "downlink": 435600000
      }
    ],
    "image": "",
    "country": "DE"
  },
  {
    "norad_id": "58261",
    "name": "Veronika",
    "tle1": "1 58261U 23174F   25108.81920536  .00105626  00000+0  14251-2 0  9993\r",
    "tle2": "2 58261  97.4152 192.4025 0007849 223.4310 136.6328 15.57403674 80591",
    "transmitters": [
      {
        "description": "Mode U/U - GFSK9k6 AX.25 G3RUH",
        "mode": "GFSK",
        "status": "active",
        "uplink": 436680000,
        "downlink": 436680000
      },
      {
        "description": "Mode U - CW",
        "mode": "CW",
        "status": "active",
        "uplink": null,
        "downlink": 436680000
      },
      {
        "description": "Mode V/V - GFSK9k6 AX.25 G3RUH",
        "mode": "GFSK",
        "status": "inactive",
        "uplink": 145925000,
        "downlink": 145925000
      }
    ],
    "image": "satellites/veronika_G6OopQK.jpg",
    "country": "SK"
  },
  {
    "norad_id": "39417",
    "name": "ZACube-1",
    "tle1": "1 39417U 13066B   25108.82928454  .00007865  00000+0  69233-3 0  9999\r",
    "tle2": "2 39417  97.7763  66.1542 0042977 222.8402 136.9468 14.96050736617178",
    "transmitters": [
      {
        "description": "FSK1k2 TLM",
        "mode": "FSK",
        "status": "active",
        "uplink": null,
        "downlink": 437356000
      },
      {
        "description": "FSK9K6 TLM",
        "mode": "FSK",
        "status": "active",
        "uplink": null,
        "downlink": 437356000
      },
      {
        "description": "14.099 MHz CW Beacon",
        "mode": "CW",
        "status": "active",
        "uplink": null,
        "downlink": 14099000
      }
    ],
    "image": "https://db-satnogs.freetls.fastly.net/media/satellites/index.jpeg",
    "country": "ZA"
  },
  {
    "norad_id": "42759",
    "name": "ZHUHAI-1 02",
    "tle1": "1 42759U 17034B   25108.86429509  .00067845  00000+0  92560-3 0  9995\r",
    "tle2": "2 42759  43.0088 268.6045 0019964 289.2852  70.5851 15.56373368434529",
    "transmitters": [
      {
        "description": "CW Beacon",
        "mode": "CW",
        "status": "active",
        "uplink": null,
        "downlink": 145910000
      },
      {
        "description": "Linear Transponder",
        "mode": "USB",
        "status": "active",
        "uplink": "435270000-435290000",
        "downlink": "145915000-145935000"
      },
      {
        "description": "Mode U GMSK4k8 - TLM",
        "mode": "GMSK",
        "status": "active",
        "uplink": null,
        "downlink": 145893000
      }
    ],
    "image": "https://db-satnogs.freetls.fastly.net/media/satellites/cas-4-satellite_27im88Z.jpg",
    "country": "CN"
  },
  {
    "norad_id": "49399",
    "name": "Z-Sat",
    "tle1": "1 49399U 21102E   25108.80808168  .00006401  00000+0  35632-3 0  9997\r",
    "tle2": "2 49399  97.3856 151.8829 0016538 284.2648  75.6747 15.13860609189143",
    "transmitters": [
      {
        "description": "Mode V - CW Beacon",
        "mode": "CW",
        "status": "active",
        "uplink": null,
        "downlink": 145875000
      },
      {
        "description": "Mode U/V - BBS",
        "mode": "FSK",
        "status": "active",
        "uplink": 435480000,
        "downlink": 145875000
      },
      {
        "description": "Mode V - 9K6 GMSK",
        "mode": "GMSK",
        "status": "active",
        "uplink": null,
        "downlink": 145875000
      }
    ],
    "image": "",
    "country": "JP"
  }
]